STARLINK-30363
1 57744U 23131N   26061.16668981  .01139415  00000+0  54269-1 0  9997
2 57744  42.9996 199.6173 0001326 288.7000 149.6494 15.15569144  5813
